GLOBALSTAR M035         
1 25851U 99037A   25185.48679997 -.00000084  00000+0 -75222-3 0  9993
2 25851  51.9979  16.3860 0013975  13.0223   4.3881 11.04538556 98170
GLOBALSTAR M032         
1 25852U 99037B   25185.30353056 -.00000020  00000+0  15067-2 0  9999
2 25852  51.9911 200.8117 0012236 195.8408 164.2010 11.19062087136704
GLOBALSTAR M051         
1 25853U 99037C   25185.64472974 -.00000085  00000+0 -31699-3 0  9990
2 25853  51.9821 358.7782 0000382 154.9907 205.0922 11.42204650134406
GLOBALSTAR M030         
1 25854U 99037D   25185.39094803 -.00000051  00000+0  49952-3 0  9997
2 25854  51.9846 164.4018 0003070  71.5760 288.5390 11.55108812152037
GLOBALSTAR M048         
1 25872U 99041A   25185.57967772 -.00000064  00000+0  16612-3 0  9997
2 25872  51.9384 294.6431 0013576 212.7140 243.1883 11.33857680126958
GLOBALSTAR M026         
1 25873U 99041B   25185.33664122  .00000026  00000+0  33254-2 0  9992
2 25873  51.9993 134.4993 0002265 311.1968 223.4770 11.06841160150380
GLOBALSTAR M043         
1 25874U 99041C   25185.07440549 -.00000080  00000+0 -35548-3 0  9990
2 25874  51.9421  44.1579 0013477 344.0655 178.3223 11.25695596124775
GLOBALSTAR M028         
1 25875U 99041D   25185.25693936 -.00000075  00000+0  16872-3 0  9993
2 25875  51.9607 142.1650 0063375 108.2180 252.5592 12.50584407192312
